OBJECT_NAME,OBJECT_ID,EPOCH,MEAN_MOTION,ECCENTRICITY,INCLINATION,RA_OF_ASC_NODE,ARG_OF_PERICENTER,MEAN_ANOMALY,EPHEMERIS_TYPE,CLASSIFICATION_TYPE,NORAD_CAT_ID,ELEMENT_SET_NO,REV_AT_EPOCH,BSTAR,MEAN_MOTION_DOT,MEAN_MOTION_DDOT
STARLINK-32929,2025-032S,2026-06-25T17:52:54.100704,15.27655210,.00015245,43.0032,85.9854,259.7195,100.3485,0,U,63021,999,7714,.1502113E-2,.414E-3,0
STARLINK-32944,2025-032T,2026-06-25T18:18:48.494592,15.27599451,.00016132,42.9993,86.1240,278.3398,81.7270,0,U,63022,999,7714,.81030663E-3,.22116E-3,0
STARLINK-32943,2025-032U,2026-06-25T18:50:02.973696,15.27589428,.00009105,42.9989,85.4241,263.7058,96.3690,0,U,63023,999,7715,.13023359E-2,.35759E-3,0
STARLINK-32803,2025-032V,2026-06-25T23:26:57.748128,15.27594616,.00016163,43.0004,84.2831,267.4154,92.6512,0,U,63024,999,7702,.97238682E-3,.26605E-3,0
STARLINK-32926,2025-032W,2026-06-25T18:35:14.551008,15.27597817,.00009153,42.9970,85.3352,282.6014,77.4735,0,U,63025,999,7715,.52780895E-3,.14298E-3,0
GLOBAL-31,2025-033B,2026-06-25T16:36:26.676288,15.37919056,.00096953,58.9991,281.7429,50.2344,309.9584,0,U,63027,999,7563,.4182745E-3,.15463E-3,0
STARLINK-32798,2025-034A,2026-06-26T03:24:51.571584,15.30196423,.00011999,53.1571,126.9982,67.9912,292.1216,0,U,63029,999,7551,.33365507E-3,.9534E-4,0
STARLINK-32779,2025-034B,2026-06-26T02:02:58.839936,15.34398041,.00011983,53.1585,127.3604,85.9017,274.2123,0,U,63030,999,7550,.60783812E-3,.20215E-3,0
STARLINK-32716,2025-034C,2026-06-26T02:32:19.838688,15.34416748,.00010042,53.1572,113.2785,117.1902,242.9203,0,U,63031,999,7570,.86959843E-3,.29134E-3,0
STARLINK-32776,2025-034D,2026-06-25T23:58:06.835008,15.34370274,.00016336,53.1565,114.0285,112.9527,247.1648,0,U,63032,999,7568,.99031935E-3,.332E-3,0
STARLINK-32772,2025-034E,2026-06-26T06:00:02.000160,15.31661710,.00015419,53.1602,113.7248,82.9592,148.6339,0,U,63033,999,556,.18319135E-2,.56848E-3,0
STARLINK-32830,2025-034F,2026-06-26T02:25:09.980544,15.31721336,.0001083,53.1582,113.9580,78.5344,281.5779,0,U,63034,999,7569,.89917116E-3,.27659E-3,0
STARLINK-32801,2025-034G,2026-06-26T02:44:27.404448,15.34409327,.00011776,53.1559,113.3316,87.9112,272.2026,0,U,63035,999,7569,.96855622E-3,.325E-3,0
STARLINK-32818,2025-034H,2026-06-26T02:20:24.546048,15.30195721,.00010923,53.1588,114.6470,98.6980,261.4144,0,U,63036,999,7568,.10359499E-2,.30444E-3,0
STARLINK-32810,2025-034J,2026-06-26T03:32:56.106240,15.34401711,.00013206,53.1589,113.5447,80.7924,279.3228,0,U,63037,999,7570,.81918718E-3,.27404E-3,0
STARLINK-32812,2025-034K,2026-06-26T02:26:29.196384,15.30206985,.00011379,53.1586,114.6673,84.6128,275.5003,0,U,63038,999,7568,.98189654E-3,.28841E-3,0
STARLINK-32811,2025-034L,2026-06-26T05:24:53.997408,15.34399896,.00018839,53.1589,113.3153,149.3356,210.7757,0,U,63039,999,7571,.87008406E-3,.29135E-3,0
STARLINK-32832,2025-034M,2026-06-26T02:18:26.349984,15.31725560,.00015707,53.1587,113.9271,143.7172,216.3937,0,U,63040,999,7569,.76185545E-3,.23369E-3,0
STARLINK-32820,2025-034N,2026-06-26T02:18:52.606080,15.30171172,.00009356,53.1590,114.6358,46.6232,313.4847,0,U,63041,999,7568,.68031271E-3,.19826E-3,0
STARLINK-32795,2025-034P,2026-06-25T23:33:49.993632,15.34406653,.00011906,53.1573,113.9247,81.8368,278.2770,0,U,63042,999,7568,.73117762E-3,.24413E-3,0
STARLINK-32827,2025-034Q,2026-06-26T02:14:23.821728,15.34415494,.00013911,53.1553,125.9821,139.3783,220.7323,0,U,63043,999,7552,.73961354E-3,.24708E-3,0
STARLINK-32735,2025-034R,2026-06-26T03:20:57.079392,15.34395520,.00010353,53.1574,125.5655,65.8603,294.2507,0,U,63044,999,7553,.93792906E-3,.31442E-3,0
STARLINK-32828,2025-034S,2026-06-26T03:45:39.275712,15.33524572,.00012231,53.1581,127.0809,104.9801,255.1337,0,U,63045,999,7551,.15406596E-2,.50599E-3,0
STARLINK-32738,2025-034T,2026-06-26T03:29:54.094272,15.34410182,.00012508,53.1593,113.5239,116.6093,243.5038,0,U,63046,999,7570,.92192239E-3,.30911E-3,0
STARLINK-32590,2025-034U,2026-06-26T02:21:55.628928,15.30216331,.00009322,53.1579,114.6500,93.9370,266.1738,0,U,63047,999,7567,.10737465E-2,.31593E-3,0
STARLINK-32790,2025-034V,2026-06-26T02:11:15.497376,15.34405855,.00014551,53.1592,113.8927,91.1236,268.9933,0,U,63048,999,7569,.77481345E-3,.25897E-3,0
STARLINK-32829,2025-034W,2026-06-26T03:45:09.726912,15.34403921,.00012247,53.1566,125.6663,86.3638,273.7505,0,U,63049,999,7553,.73338117E-3,.24486E-3,0
STARLINK-32816,2025-034X,2026-06-26T03:42:07.856640,15.34400503,.00013186,53.1566,125.6502,85.8014,274.3140,0,U,63050,999,7553,.74248663E-3,.24793E-3,0
STARLINK-32835,2025-034Y,2026-06-26T04:57:44.563392,15.34373070,.0001261,53.1570,125.2759,83.7569,276.3577,0,U,63051,999,7554,.10114E-2,.33922E-3,0
STARLINK-11550 [DTC],2025-035A,2026-06-25T18:48:15.429024,15.70955196,.00025994,43.0011,83.5751,274.3513,85.7058,0,U,63052,999,7822,.13846595E-3,.17442E-3,0
