STARLINK-32929          
1 63021U 25032S   26176.74507061  .00041400  00000+0  15021-2 0  9995
2 63021  43.0032  85.9854 0001524 259.7195 100.3485 15.27655210 77149
STARLINK-32944          
1 63022U 25032T   26176.76306128  .00022116  00000+0  81031-3 0  9997
2 63022  42.9993  86.1240 0001613 278.3398  81.7270 15.27599451 77145
STARLINK-32943          
1 63023U 25032U   26176.78475664  .00035759  00000+0  13023-2 0  9994
2 63023  42.9989  85.4241 0000910 263.7058  96.3690 15.27589428 77156
STARLINK-32803          
1 63024U 25032V   26176.97705727  .00026605  00000+0  97239-3 0  9994
2 63024  43.0004  84.2831 0001616 267.4154  92.6512 15.27594616 77024
STARLINK-32926          
1 63025U 25032W   26176.77447397  .00014298  00000+0  52781-3 0  9997
2 63025  42.9970  85.3352 0000915 282.6014  77.4735 15.27597817 77158
GLOBAL-31               
1 63027U 25033B   26176.69197542  .00015463  00000+0  41827-3 0  9999
2 63027  58.9991 281.7429 0009695  50.2344 309.9584 15.37919056 75636
STARLINK-32798          
1 63029U 25034A   26177.14226356  .00009534  00000+0  33366-3 0  9990
2 63029  53.1571 126.9982 0001199  67.9912 292.1216 15.30196423 75510
STARLINK-32779          
1 63030U 25034B   26177.08540324  .00020215  00000+0  60784-3 0  9992
2 63030  53.1585 127.3604 0001198  85.9017 274.2123 15.34398041 75509
STARLINK-32716          
1 63031U 25034C   26177.10578517  .00029134  00000+0  86960-3 0  9994
2 63031  53.1572 113.2785 0001004 117.1902 242.9203 15.34416748 75705
STARLINK-32776          
1 63032U 25034D   26176.99869022  .00033200  00000+0  99032-3 0  9998
2 63032  53.1565 114.0285 0001633 112.9527 247.1648 15.34370274 75686
STARLINK-32772          
1 63033U 25034E   26177.25002315  .00056848  00000+0  18319-2 0  9994
2 63033  53.1602 113.7248 0001541  82.9592 148.6339 15.31661710  5567
STARLINK-32830          
1 63034U 25034F   26177.10080996  .00027659  00000+0  89917-3 0  9991
2 63034  53.1582 113.9580 0001083  78.5344 281.5779 15.31721336 75690
STARLINK-32801          
1 63035U 25034G   26177.11420607  .00032500  00000+0  96856-3 0  9991
2 63035  53.1559 113.3316 0001177  87.9112 272.2026 15.34409327 75695
STARLINK-32818          
1 63036U 25034H   26177.09750632  .00030444  00000+0  10359-2 0  9991
2 63036  53.1588 114.6470 0001092  98.6980 261.4144 15.30195721 75687
STARLINK-32810          
1 63037U 25034J   26177.14787160  .00027404  00000+0  81919-3 0  9997
2 63037  53.1589 113.5447 0001320  80.7924 279.3228 15.34401711 75702
STARLINK-32812          
1 63038U 25034K   26177.10172681  .00028841  00000+0  98190-3 0  9995
2 63038  53.1586 114.6673 0001137  84.6128 275.5003 15.30206985 75686
STARLINK-32811          
1 63039U 25034L   26177.22562497  .00029135  00000+0  87008-3 0  9990
2 63039  53.1589 113.3153 0001883 149.3356 210.7757 15.34399896 75718
STARLINK-32832          
1 63040U 25034M   26177.09613831  .00023369  00000+0  76186-3 0  9994
2 63040  53.1587 113.9271 0001570 143.7172 216.3937 15.31725560 75699
STARLINK-32820          
1 63041U 25034N   26177.09644220  .00019826  00000+0  68031-3 0  9994
2 63041  53.1590 114.6358 0000935  46.6232 313.4847 15.30171172 75681
STARLINK-32795          
1 63042U 25034P   26176.98182863  .00024413  00000+0  73118-3 0  9992
2 63042  53.1573 113.9247 0001190  81.8368 278.2770 15.34406653 75689
STARLINK-32827          
1 63043U 25034Q   26177.09333127  .00024708  00000+0  73961-3 0  9990
2 63043  53.1553 125.9821 0001391 139.3783 220.7323 15.34415494 75524
STARLINK-32735          
1 63044U 25034R   26177.13954953  .00031442  00000+0  93793-3 0  9990
2 63044  53.1574 125.5655 0001035  65.8603 294.2507 15.34395520 75536
STARLINK-32828          
1 63045U 25034S   26177.15670458  .00050599  00000+0  15407-2 0  9997
2 63045  53.1581 127.0809 0001223 104.9801 255.1337 15.33524572 75512
STARLINK-32738          
1 63046U 25034T   26177.14576498  .00030911  00000+0  92192-3 0  9999
2 63046  53.1593 113.5239 0001250 116.6093 243.5038 15.34410182 75708
STARLINK-32590          
1 63047U 25034U   26177.09856052  .00031593  00000+0  10737-2 0  9992
2 63047  53.1579 114.6500 0000932  93.9370 266.1738 15.30216331 75677
STARLINK-32790          
1 63048U 25034V   26177.09115159  .00025897  00000+0  77481-3 0  9999
2 63048  53.1592 113.8927 0001455  91.1236 268.9933 15.34405855 75693
STARLINK-32829          
1 63049U 25034W   26177.15636258  .00024486  00000+0  73338-3 0  9995
2 63049  53.1566 125.6663 0001224  86.3638 273.7505 15.34403921 75533
STARLINK-32816          
1 63050U 25034X   26177.15425760  .00024793  00000+0  74249-3 0  9994
2 63050  53.1566 125.6502 0001318  85.8014 274.3140 15.34400503 75538
STARLINK-32835          
1 63051U 25034Y   26177.20676578  .00033922  00000+0  10114-2 0  9990
2 63051  53.1570 125.2759 0001261  83.7569 276.3577 15.34373070 75548
STARLINK-11550 [DTC]    
1 63052U 25035A   26176.78351191  .00017442  00000+0  13847-3 0  9991
2 63052  43.0011  83.5751 0002599 274.3513  85.7058 15.70955196 78226
